IRIDIUM 144             
1 43249U 18030A   25041.50207664  .00000528  00000+0  18156-3 0  9994
2 43249  86.4007 135.9774 0002199  95.6689 264.4758 14.34218645359684
IRIDIUM 149             
1 43250U 18030B   25041.50841786  .00000263  00000+0  86800-4 0  9993
2 43250  86.4006 135.9474 0002190  91.9156 268.2290 14.34217191359689
IRIDIUM 157             
1 43251U 18030C   25040.75999331  .00000231  00000+0  75352-4 0  9995
2 43251  86.4011 136.3022 0001855  97.0563 263.0844 14.34219125359559
IRIDIUM 140             
1 43252U 18030D   25041.54647179  .00000521  00000+0  17879-3 0  9995
2 43252  86.4009 135.9880 0002312  97.4550 262.6909 14.34221371359725
IRIDIUM 145             
1 43253U 18030E   25041.18494830 -.00000288  00000+0 -10999-3 0  9998
2 43253  86.4008 136.1116 0002330  88.0026 272.1436 14.34215841359607
IRIDIUM 146             
1 43254U 18030F   25041.51476299  .00000151  00000+0  46898-4 0  9990
2 43254  86.4006 135.9879 0002560  89.9594 270.1895 14.34218520359664
IRIDIUM 148             
1 43255U 18030G   25041.55281649  .00000339  00000+0  11416-3 0  9993
2 43255  86.4008 136.0076 0002173  92.1963 267.9482 14.34219579359711
IRIDIUM 142             
1 43256U 18030H   25041.17226232  .00000632  00000+0  21858-3 0  9996
2 43256  86.4006 136.0734 0002428  86.6678 273.4796 14.34218876359613
